[{"OBJECT_NAME":"ONEWEB-0048","OBJECT_ID":"2020-008Y","EPOCH":"2026-03-09T22:56:17.349504","MEAN_MOTION":13.10369925,"ECCENTRICITY":0.00018929,"INCLINATION":87.8769,"RA_OF_ASC_NODE":56.0465,"ARG_OF_PERICENTER":88.3451,"MEAN_ANOMALY":271.7893,"EPHEMERIS_TYPE":0,"CLASSIFICATION_TYPE":"U","NORAD_CAT_ID":45153,"ELEMENT_SET_NO":999,"REV_AT_EPOCH":29481,"BSTAR":0.0017144435,"MEAN_MOTION_DOT":6.11e-6,"MEAN_MOTION_DDOT":0},{"OBJECT_NAME":"THORAD DELTA 1 DEB","OBJECT_ID":"1974-089CK","EPOCH":"2026-03-09T22:44:47.567328","MEAN_MOTION":12.67067128,"ECCENTRICITY":0.02302287,"INCLINATION":101.5872,"RA_OF_ASC_NODE":52.2214,"ARG_OF_PERICENTER":347.6974,"MEAN_ANOMALY":77.3913,"EPHEMERIS_TYPE":0,"CLASSIFICATION_TYPE":"U","NORAD_CAT_ID":8407,"ELEMENT_SET_NO":999,"REV_AT_EPOCH":37281,"BSTAR":0.0011615052,"MEAN_MOTION_DOT":2.0e-6,"MEAN_MOTION_DDOT":0}]
